start=new Date('2023-02-10T00:00:00.000Z').valueOf();
sats=[{"SITE":"AFETR","INCLINATION":"53.2152","PERIOD":"95.437","OBJECT_NAME":"STARLINK-3347","CLASSIFICATION_TYPE":"U","OBJECT_TYPE":"PAYLOAD","GP_ID":"224959241","ECCENTRICITY":"0.00012130","RA_OF_ASC_NODE":"164.3013","LAUNCH_DATE":"2022-01-06","DECAY_DATE":null,"MEAN_MOTION":"15.08841650","TLE_LINE1":"1 50811U 22001J   23040.83410947  .00000521  00000-0  50788-4 0  9995","APOAPSIS":"540.579","CENTER_NAME":"EARTH","PERIAPSIS":"538.901","REF_FRAME":"TEME","MEAN_MOTION_DDOT":"0.0000000000000","OBJECT_ID":"2022-001J","MEAN_MOTION_DOT":"0.00000521","TIME_SYSTEM":"UTC","TLE_LINE2":"2 50811  53.2152 164.3013 0001213 116.0166 244.0951 15.08841650 60886","MEAN_ELEMENT_THEORY":"SGP4","FILE":"3783241","SEMIMAJOR_AXIS":"6917.875","COUNTRY_CODE":"US","MEAN_ANOMALY":"244.0951","NORAD_CAT_ID":"50811","EPHEMERIS_TYPE":"0","REV_AT_EPOCH":"6088","RCS_SIZE":"LARGE","ELEMENT_SET_NO":"999","BSTAR":"0.00005078800000","EPOCH":"2023-02-09T20:01:07.058208","ARG_OF_PERICENTER":"116.0166"},{"REF_FRAME":"TEME","MEAN_MOTION_DDOT":"0.0000000000000","OBJECT_ID":"2022-001K","CENTER_NAME":"EARTH","PERIAPSIS":"538.765","SEMIMAJOR_AXIS":"6917.854","COUNTRY_CODE":"US","FILE":"3783241","MEAN_ELEMENT_THEORY":"SGP4","MEAN_MOTION_DOT":"0.00014234","TIME_SYSTEM":"UTC","TLE_LINE2":"2 50812  53.2174 165.0581 0001380  72.1047 288.0095 15.08848473 60858","BSTAR":"0.00091038000000","RCS_SIZE":"LARGE","ELEMENT_SET_NO":"999","NORAD_CAT_ID":"50812","EPHEMERIS_TYPE":"0","REV_AT_EPOCH":"6085","MEAN_ANOMALY":"288.0095","ARG_OF_PERICENTER":"72.1047","EPOCH":"2023-02-09T15:58:43.774752","CLASSIFICATION_TYPE":"U","OBJECT_NAME":"STARLINK-3338","SITE":"AFETR","PERIOD":"95.437","INCLINATION":"53.2174","OBJECT_TYPE":"PAYLOAD","GP_ID":"224959487","LAUNCH_DATE":"2022-01-06","ECCENTRICITY":"0.00013800","RA_OF_ASC_NODE":"165.0581","TLE_LINE1":"1 50812U 22001K   23040.66578443  .00014234  00000-0  91038-3 0  9991","APOAPSIS":"540.674","DECAY_DATE":null,"MEAN_MOTION":"15.08848473"},{"GP_ID":"224960233","OBJECT_TYPE":"PAYLOAD","CLASSIFICATION_TYPE":"U","OBJECT_NAME":"STARLINK-3349","PERIOD":"95.436","INCLINATION":"53.2160","SITE":"AFETR","APOAPSIS":"540.295","TLE_LINE1":"1 50813U 22001L   23040.63266177  .00009386  00000-0  60663-3 0  9999","MEAN_MOTION":"15.08863771","DECAY_DATE":null,"LAUNCH_DATE":"2022-01-06","ECCENTRICITY":"0.00009000","RA_OF_ASC_NODE":"165.2097","COUNTRY_CODE":"US","SEMIMAJOR_AXIS":"6917.808","MEAN_ELEMENT_THEORY":"SGP4","FILE":"3783241","TIME_SYSTEM":"UTC","TLE_LINE2":"2 50813  53.2160 165.2097 0000900 101.7350 258.3743 15.08863771 60859","MEAN_MOTION_DOT":"0.00009386","OBJECT_ID":"2022-001L","MEAN_MOTION_DDOT":"0.0000000000000","REF_FRAME":"TEME","PERIAPSIS":"539.050","CENTER_NAME":"EARTH","ARG_OF_PERICENTER":"101.7350","EPOCH":"2023-02-09T15:11:01.976928","RCS_SIZE":"LARGE","BSTAR":"0.00060663000000","ELEMENT_SET_NO":"999","REV_AT_EPOCH":"6085","EPHEMERIS_TYPE":"0","NORAD_CAT_ID":"50813","MEAN_ANOMALY":"258.3743"},{"MEAN_ANOMALY":"260.1872","NORAD_CAT_ID":"50814","EPHEMERIS_TYPE":"0","REV_AT_EPOCH":"6072","ELEMENT_SET_NO":"999","RCS_SIZE":"LARGE","BSTAR":"0.00011711000000","EPOCH":"2023-02-09T16:17:12.964992","ARG_OF_PERICENTER":"99.9237","CENTER_NAME":"EARTH","PERIAPSIS":"539.008","REF_FRAME":"TEME","MEAN_MOTION_DDOT":"0.0000000000000","OBJECT_ID":"2022-001M","MEAN_MOTION_DOT":"0.00001577","TIME_SYSTEM":"UTC","TLE_LINE2":"2 50814  53.2134 175.0089 0001031  99.9237 260.1872 15.08847855 60724","MEAN_ELEMENT_THEORY":"SGP4","FILE":"3783241","SEMIMAJOR_AXIS":"6917.856","COUNTRY_CODE":"US","RA_OF_ASC_NODE":"175.0089","ECCENTRICITY":"0.00010310","LAUNCH_DATE":"2022-01-06","DECAY_DATE":null,"MEAN_MOTION":"15.08847855","TLE_LINE1":"1 50814U 22001M   23040.67862228  .00001577  00000-0  11711-3 0  9997","APOAPSIS":"540.435","SITE":"AFETR","INCLINATION":"53.2134","PERIOD":"95.437","CLASSIFICATION_TYPE":"U","OBJECT_NAME":"STARLINK-3324","OBJECT_TYPE":"PAYLOAD","GP_ID":"224958492"},{"APOAPSIS":"540.445","TLE_LINE1":"1 50815U 22001N   23040.68963776  .00007678  00000-0  49941-3 0  9993","MEAN_MOTION":"15.08879888","DECAY_DATE":null,"LAUNCH_DATE":"2022-01-06","ECCENTRICITY":"0.00011870","RA_OF_ASC_NODE":"174.9596","GP_ID":"224958742","OBJECT_TYPE":"PAYLOAD","CLASSIFICATION_TYPE":"U","OBJECT_NAME":"STARLINK-3234","INCLINATION":"53.2140","PERIOD":"95.435","SITE":"AFETR","ARG_OF_PERICENTER":"101.3990","EPOCH":"2023-02-09T16:33:04.702464","RCS_SIZE":"LARGE","BSTAR":"0.00049941000000","ELEMENT_SET_NO":"999","REV_AT_EPOCH":"6072","NORAD_CAT_ID":"50815","EPHEMERIS_TYPE":"0","MEAN_ANOMALY":"258.7136","COUNTRY_CODE":"US","SEMIMAJOR_AXIS":"6917.758","MEAN_ELEMENT_THEORY":"SGP4","FILE":"3783241","TIME_SYSTEM":"UTC","TLE_LINE2":"2 50815  53.2140 174.9596 0001187 101.3990 258.7136 15.08879888 60726","MEAN_MOTION_DOT":"0.00007678","OBJECT_ID":"2022-001N","MEAN_MOTION_DDOT":"0.0000000000000","REF_FRAME":"TEME","PERIAPSIS":"538.802","CENTER_NAME":"EARTH"},{"GP_ID":"224959987","OBJECT_TYPE":"PAYLOAD","PERIOD":"95.438","INCLINATION":"53.2158","SITE":"AFETR","OBJECT_NAME":"STARLINK-3342","CLASSIFICATION_TYPE":"U","MEAN_MOTION":"15.08838043","DECAY_DATE":null,"APOAPSIS":"540.494","TLE_LINE1":"1 50816U 22001P   23040.59399057 -.00000043  00000-0  15379-4 0  9998","RA_OF_ASC_NODE":"175.3821","ECCENTRICITY":"0.00010730","LAUNCH_DATE":"2022-01-06","TLE_LINE2":"2 50816  53.2158 175.3821 0001073  82.5709 277.5405 15.08838043 60708","TIME_SYSTEM":"UTC","MEAN_MOTION_DOT":"-0.00000043","FILE":"3783241","MEAN_ELEMENT_THEORY":"SGP4","COUNTRY_CODE":"US","SEMIMAJOR_AXIS":"6917.886","PERIAPSIS":"539.009","CENTER_NAME":"EARTH","OBJECT_ID":"2022-001P","REF_FRAME":"TEME","MEAN_MOTION_DDOT":"0.0000000000000","EPOCH":"2023-02-09T14:15:20.785248","ARG_OF_PERICENTER":"82.5709","MEAN_ANOMALY":"277.5405","REV_AT_EPOCH":"6070","EPHEMERIS_TYPE":"0","NORAD_CAT_ID":"50816","BSTAR":"0.00001537900000","RCS_SIZE":"LARGE","ELEMENT_SET_NO":"999"},{"DECAY_DATE":null,"MEAN_MOTION":"15.08844988","TLE_LINE1":"1 50817U 22001Q   23040.81846422  .00002889  00000-0  19948-3 0  9991","APOAPSIS":"540.530","ECCENTRICITY":"0.00011560","RA_OF_ASC_NODE":"174.3789","LAUNCH_DATE":"2022-01-06","OBJECT_TYPE":"PAYLOAD","GP_ID":"224959735","OBJECT_NAME":"STARLINK-3341","CLASSIFICATION_TYPE":"U","SITE":"AFETR","PERIOD":"95.437","INCLINATION":"53.2145","EPOCH":"2023-02-09T19:38:35.308608","ARG_OF_PERICENTER":"95.2395","NORAD_CAT_ID":"50817","EPHEMERIS_TYPE":"0","REV_AT_EPOCH":"6074","MEAN_ANOMALY":"264.8729","RCS_SIZE":"LARGE","ELEMENT_SET_NO":"999","BSTAR":"0.00019948000000","MEAN_MOTION_DOT":"0.00002889","TLE_LINE2":"2 50817  53.2145 174.3789 0001156  95.2395 264.8729 15.08844988 60748","TIME_SYSTEM":"UTC","SEMIMAJOR_AXIS":"6917.865","COUNTRY_CODE":"US","FILE":"3783241","MEAN_ELEMENT_THEORY":"SGP4","CENTER_NAME":"EARTH","PERIAPSIS":"538.930","REF_FRAME":"TEME","MEAN_MOTION_DDOT":"0.0000000000000","OBJECT_ID":"2022-001Q"},{"RCS_SIZE":"LARGE","BSTAR":"-0.00001906100000","ELEMENT_SET_NO":"999","MEAN_ANOMALY":"270.9740","REV_AT_EPOCH":"6070","NORAD_CAT_ID":"50818","EPHEMERIS_TYPE":"0","ARG_OF_PERICENTER":"89.1383","EPOCH":"2023-02-09T14:25:56.084448","OBJECT_ID":"2022-001R","REF_FRAME":"TEME","MEAN_MOTION_DDOT":"0.0000000000000","PERIAPSIS":"538.922","CENTER_NAME":"EARTH","MEAN_ELEMENT_THEORY":"SGP4","FILE":"3783241","COUNTRY_CODE":"US","SEMIMAJOR_AXIS":"6917.844","TLE_LINE2":"2 50818  53.2184 175.3401 0001138  89.1383 270.9740 15.08851830 60704","TIME_SYSTEM":"UTC","MEAN_MOTION_DOT":"-0.00000591","LAUNCH_DATE":"2022-01-06","RA_OF_ASC_NODE":"175.3401","ECCENTRICITY":"0.00011380","APOAPSIS":"540.496","TLE_LINE1":"1 50818U 22001R   23040.60134357 -.00000591  00000-0 -19061-4 0  9993","MEAN_MOTION":"15.08851830","DECAY_DATE":null,"PERIOD":"95.437","INCLINATION":"53.2184","SITE":"AFETR","CLASSIFICATION_TYPE":"U","OBJECT_NAME":"STARLINK-3336","GP_ID":"224958992","OBJECT_TYPE":"PAYLOAD"},{"MEAN_MOTION_DOT":"0.00000850","TLE_LINE2":"2 50819  53.2130 175.3207 0001534 137.5970 222.5141 15.08845889 60716","TIME_SYSTEM":"UTC","SEMIMAJOR_AXIS":"6917.862","COUNTRY_CODE":"US","MEAN_ELEMENT_THEORY":"SGP4","FILE":"3783241","CENTER_NAME":"EARTH","PERIAPSIS":"538.666","MEAN_MOTION_DDOT":"0.0000000000000","REF_FRAME":"TEME","OBJECT_ID":"2022-001S","EPOCH":"2023-02-09T14:36:31.779360","ARG_OF_PERICENTER":"137.5970","EPHEMERIS_TYPE":"0","NORAD_CAT_ID":"50819","REV_AT_EPOCH":"6071","MEAN_ANOMALY":"222.5141","BSTAR":"0.00007147100000","RCS_SIZE":"LARGE","ELEMENT_SET_NO":"999","OBJECT_TYPE":"PAYLOAD","GP_ID":"224959242","OBJECT_NAME":"STARLINK-3327","CLASSIFICATION_TYPE":"U","SITE":"AFETR","PERIOD":"95.437","INCLINATION":"53.2130","DECAY_DATE":null,"MEAN_MOTION":"15.08845889","TLE_LINE1":"1 50819U 22001S   23040.60870115  .00000850  00000-0  71471-4 0  9992","APOAPSIS":"540.789","RA_OF_ASC_NODE":"175.3207","ECCENTRICITY":"0.00015340","LAUNCH_DATE":"2022-01-06"},{"RCS_SIZE":"LARGE","BSTAR":"0.00001974500000","ELEMENT_SET_NO":"999","NORAD_CAT_ID":"50820","EPHEMERIS_TYPE":"0","REV_AT_EPOCH":"6070","MEAN_ANOMALY":"256.7873","ARG_OF_PERICENTER":"103.3230","EPOCH":"2023-02-09T14:10:02.347680","REF_FRAME":"TEME","MEAN_MOTION_DDOT":"0.0000000000000","OBJECT_ID":"2022-001T","CENTER_NAME":"EARTH","PERIAPSIS":"539.051","SEMIMAJOR_AXIS":"6917.872","COUNTRY_CODE":"US","MEAN_ELEMENT_THEORY":"SGP4","FILE":"3783241","MEAN_MOTION_DOT":"0.00000027","TIME_SYSTEM":"UTC","TLE_LINE2":"2 50820  53.2146 175.3970 0000991 103.3230 256.7873 15.08842851 60704","LAUNCH_DATE":"2022-01-06","RA_OF_ASC_NODE":"175.3970","ECCENTRICITY":"0.00009910","TLE_LINE1":"1 50820U 22001T   23040.59030495  .00000027  00000-0  19745-4 0  9993","APOAPSIS":"540.422","DECAY_DATE":null,"MEAN_MOTION":"15.08842851","CLASSIFICATION_TYPE":"U","OBJECT_NAME":"STARLINK-3339","SITE":"AFETR","PERIOD":"95.437","INCLINATION":"53.2146","OBJECT_TYPE":"PAYLOAD","GP_ID":"224959488"}];
